LEMUR-2-MIRIWARI
1 51054U 22002BY  24003.14791096  .00048509  00000-0  12457-2 0  9994
2 51054  97.4137  75.5881 0004174 258.5895 101.4882 15.39148828109340
